{
  "type": "FeatureCollection",
  "features": [
    {
      "type": "Feature",
      "properties": {
        "norad_id": 40689,
        "name": "FENGYUN 1C DEB",
        "group": "fengyun-1c-debris",
        "lat": -71.6755733370254,
        "lon": -70.78234073081346,
        "alt_km": 1252.8476211930847,
        "timestamp": "2025-12-07T22:37:43.370401+00:00",
        "meta_object_name": "FENGYUN 1C DEB",
        "meta_object_id": "1999-025EWV",
        "meta_epoch": "2025-12-03T01:06:50.802912",
        "meta_mean_motion": 13.64656571,
        "meta_eccentricity": 0.03097255,
        "meta_inclination": 99.1251,
        "meta_ra_of_asc_node": 255.5784,
        "meta_arg_of_pericenter": 126.5569,
        "meta_mean_anomaly": 236.4512,
        "meta_ephemeris_type": 0,
        "meta_classification_type": "U",
        "meta_norad_cat_id": 40689,
        "meta_element_set_no": 999,
        "meta_rev_at_epoch": 54751,
        "meta_bstar": 0.0014793346,
        "meta_mean_motion_dot": 1.611e-05,
        "meta_mean_motion_ddot": 0,
        "tle_line1": "1 40689U 99025EWV 25337.04642133  .00001611  00000+0  14793-2 0  9999",
        "tle_line2": "2 40689  99.1251 255.5784 0309725 126.5569 236.4512 13.64656571547511"
      },
      "geometry": {
        "type": "Point",
        "coordinates": [
          -70.78234073081346,
          -71.6755733370254
        ]
      }
    },
    {
      "type": "Feature",
      "properties": {
        "norad_id": 40691,
        "name": "FENGYUN 1C DEB",
        "group": "fengyun-1c-debris",
        "lat": -39.60428389976868,
        "lon": 21.91597217640339,
        "alt_km": 841.6150175735702,
        "timestamp": "2025-12-07T22:37:43.370412+00:00",
        "meta_object_name": "FENGYUN 1C DEB",
        "meta_object_id": "1999-025EWX",
        "meta_epoch": "2025-12-03T08:15:02.306016",
        "meta_mean_motion": 13.89944729,
        "meta_eccentricity": 0.0128434,
        "meta_inclination": 99.0573,
        "meta_ra_of_asc_node": 9.8547,
        "meta_arg_of_pericenter": 336.6089,
        "meta_mean_anomaly": 22.9259,
        "meta_ephemeris_type": 0,
        "meta_classification_type": "U",
        "meta_norad_cat_id": 40691,
        "meta_element_set_no": 999,
        "meta_rev_at_epoch": 55305,
        "meta_bstar": 0.00023937,
        "meta_mean_motion_dot": 2.71e-06,
        "meta_mean_motion_ddot": 0,
        "tle_line1": "1 40691U 99025EWX 25337.34377669  .00000271  00000+0  23937-3 0  9996",
        "tle_line2": "2 40691  99.0573   9.8547 0128434 336.6089  22.9259 13.89944729553058"
      },
      "geometry": {
        "type": "Point",
        "coordinates": [
          21.91597217640339,
          -39.60428389976868
        ]
      }
    },
    {
      "type": "Feature",
      "properties": {
        "norad_id": 40695,
        "name": "FENGYUN 1C DEB",
        "group": "fengyun-1c-debris",
        "lat": 55.45186518324008,
        "lon": 85.60901699315663,
        "alt_km": 642.1462487479757,
        "timestamp": "2025-12-07T22:37:43.370422+00:00",
        "meta_object_name": "FENGYUN 1C DEB",
        "meta_object_id": "1999-025EXB",
        "meta_epoch": "2025-11-30T01:42:31.870080",
        "meta_mean_motion": 14.50916136,
        "meta_eccentricity": 0.02815501,
        "meta_inclination": 99.4248,
        "meta_ra_of_asc_node": 90.7471,
        "meta_arg_of_pericenter": 10.5794,
        "meta_mean_anomaly": 350.1155,
        "meta_ephemeris_type": 0,
        "meta_classification_type": "U",
        "meta_norad_cat_id": 40695,
        "meta_element_set_no": 999,
        "meta_rev_at_epoch": 31682,
        "meta_bstar": 0.00020572034,
        "meta_mean_motion_dot": 1.283e-05,
        "meta_mean_motion_ddot": 0,
        "tle_line1": "1 40695U 99025EXB 25334.07120220  .00001283  00000+0  20572-3 0  9992",
        "tle_line2": "2 40695  99.4248  90.7471 0281550  10.5794 350.1155 14.50916136316823"
      },
      "geometry": {
        "type": "Point",
        "coordinates": [
          85.60901699315663,
          55.45186518324008
        ]
      }
    },
    {
      "type": "Feature",
      "properties": {
        "norad_id": 40696,
        "name": "FENGYUN 1C DEB",
        "group": "fengyun-1c-debris",
        "lat": 27.903493190295748,
        "lon": 153.614527800249,
        "alt_km": 949.3233919790464,
        "timestamp": "2025-12-07T22:37:43.370433+00:00",
        "meta_object_name": "FENGYUN 1C DEB",
        "meta_object_id": "1999-025EXC",
        "meta_epoch": "2025-11-26T05:40:29.681760",
        "meta_mean_motion": 13.96727195,
        "meta_eccentricity": 0.00806572,
        "meta_inclination": 98.9548,
        "meta_ra_of_asc_node": 317.4298,
        "meta_arg_of_pericenter": 42.7994,
        "meta_mean_anomaly": 317.9411,
        "meta_ephemeris_type": 0,
        "meta_classification_type": "U",
        "meta_norad_cat_id": 40696,
        "meta_element_set_no": 999,
        "meta_rev_at_epoch": 55449,
        "meta_bstar": 0.0001965233,
        "meta_mean_motion_dot": 2.38e-06,
        "meta_mean_motion_ddot": 0,
        "tle_line1": "1 40696U 99025EXC 25330.23645465  .00000238  00000+0  19652-3 0  9996",
        "tle_line2": "2 40696  98.9548 317.4298 0080657  42.7994 317.9411 13.96727195554498"
      },
      "geometry": {
        "type": "Point",
        "coordinates": [
          153.614527800249,
          27.903493190295748
        ]
      }
    },
    {
      "type": "Feature",
      "properties": {
        "norad_id": 41003,
        "name": "FENGYUN 1C DEB",
        "group": "fengyun-1c-debris",
        "lat": -0.41819486045326093,
        "lon": 80.49268350117504,
        "alt_km": 687.111058863833,
        "timestamp": "2025-12-07T22:37:43.370443+00:00",
        "meta_object_name": "FENGYUN 1C DEB",
        "meta_object_id": "1999-025EXH",
        "meta_epoch": "2025-12-04T00:49:42.134016",
        "meta_mean_motion": 14.71928212,
        "meta_eccentricity": 0.0073367,
        "meta_inclination": 98.9659,
        "meta_ra_of_asc_node": 256.2527,
        "meta_arg_of_pericenter": 319.547,
        "meta_mean_anomaly": 40.0293,
        "meta_ephemeris_type": 0,
        "meta_classification_type": "U",
        "meta_norad_cat_id": 41003,
        "meta_element_set_no": 999,
        "meta_rev_at_epoch": 52292,
        "meta_bstar": 0.0095392716,
        "meta_mean_motion_dot": 0.00062834,
        "meta_mean_motion_ddot": 0,
        "tle_line1": "1 41003U 99025EXH 25338.03451544  .00062834  00000+0  95393-2 0  9993",
        "tle_line2": "2 41003  98.9659 256.2527 0073367 319.5470  40.0293 14.71928212522925"
      },
      "geometry": {
        "type": "Point",
        "coordinates": [
          80.49268350117504,
          -0.41819486045326093
        ]
      }
    },
    {
      "type": "Feature",
      "properties": {
        "norad_id": 41006,
        "name": "FENGYUN 1C DEB",
        "group": "fengyun-1c-debris",
        "lat": 55.467850608454164,
        "lon": 49.81432720973512,
        "alt_km": 967.3244428387534,
        "timestamp": "2025-12-07T22:37:43.370453+00:00",
        "meta_object_name": "FENGYUN 1C DEB",
        "meta_object_id": "1999-025EXL",
        "meta_epoch": "2025-12-06T21:47:16.016928",
        "meta_mean_motion": 13.8530079,
        "meta_eccentricity": 0.01894496,
        "meta_inclination": 102.3658,
        "meta_ra_of_asc_node": 209.8627,
        "meta_arg_of_pericenter": 22.3217,
        "meta_mean_anomaly": 338.6038,
        "meta_ephemeris_type": 0,
        "meta_classification_type": "U",
        "meta_norad_cat_id": 41006,
        "meta_element_set_no": 999,
        "meta_rev_at_epoch": 57408,
        "meta_bstar": 0.0041491348,
        "meta_mean_motion_dot": 5.361e-05,
        "meta_mean_motion_ddot": 0,
        "tle_line1": "1 41006U 99025EXL 25340.90782427  .00005361  00000+0  41491-2 0  9994",
        "tle_line2": "2 41006 102.3658 209.8627 0189449  22.3217 338.6038 13.85300790574085"
      },
      "geometry": {
        "type": "Point",
        "coordinates": [
          49.81432720973512,
          55.467850608454164
        ]
      }
    },
    {
      "type": "Feature",
      "properties": {
        "norad_id": 41007,
        "name": "FENGYUN 1C DEB",
        "group": "fengyun-1c-debris",
        "lat": -48.94076641837876,
        "lon": 20.064057782707916,
        "alt_km": 984.401341977501,
        "timestamp": "2025-12-07T22:37:43.370464+00:00",
        "meta_object_name": "FENGYUN 1C DEB",
        "meta_object_id": "1999-025EXM",
        "meta_epoch": "2025-11-29T06:55:22.773792",
        "meta_mean_motion": 13.85678237,
        "meta_eccentricity": 0.01723955,
        "meta_inclination": 99.9731,
        "meta_ra_of_asc_node": 359.205,
        "meta_arg_of_pericenter": 79.2855,
        "meta_mean_anomaly": 282.7657,
        "meta_ephemeris_type": 0,
        "meta_classification_type": "U",
        "meta_norad_cat_id": 41007,
        "meta_element_set_no": 999,
        "meta_rev_at_epoch": 57212,
        "meta_bstar": 0.0017167305,
        "meta_mean_motion_dot": 2.158e-05,
        "meta_mean_motion_ddot": 0,
        "tle_line1": "1 41007U 99025EXM 25333.28845803  .00002158  00000+0  17167-2 0  9990",
        "tle_line2": "2 41007  99.9731 359.2050 0172395  79.2855 282.7657 13.85678237572123"
      },
      "geometry": {
        "type": "Point",
        "coordinates": [
          20.064057782707916,
          -48.94076641837876
        ]
      }
    }
  ]
}